CCSDS_OMM_VERS = 2.0
CREATION_DATE  = 
ORIGINATOR     = 

OBJECT_NAME    = UNKNOWN
OBJECT_ID      = 
CENTER_NAME    = EARTH
REF_FRAME      = TEME
TIME_SYSTEM    = UTC
MEAN_ELEMENT_THEORY = SGP/SGP4

EPOCH          = 2026-01-03T06:08:09.899232
MEAN_MOTION    = 14.63330687
ECCENTRICITY   = .00931
INCLINATION    = 98.2501
RA_OF_ASC_NODE = 296.9787
ARG_OF_PERICENTER = 349.0544
MEAN_ANOMALY   = 10.8630

EPHEMERIS_TYPE = 0
CLASSIFICATION_TYPE = U
NORAD_CAT_ID   = 89146
ELEMENT_SET_NO = 999
REV_AT_EPOCH   = 63202
BSTAR          = .20884E-2
MEAN_MOTION_DOT = .11443E-3
MEAN_MOTION_DDOT = 0

CCSDS_OMM_VERS = 2.0
CREATION_DATE  = 
ORIGINATOR     = 

OBJECT_NAME    = UNKNOWN
OBJECT_ID      = 
CENTER_NAME    = EARTH
REF_FRAME      = TEME
TIME_SYSTEM    = UTC
MEAN_ELEMENT_THEORY = SGP/SGP4

EPOCH          = 2026-01-04T00:09:25.043040
MEAN_MOTION    = 15.45181775
ECCENTRICITY   = .0031027
INCLINATION    = 97.6542
RA_OF_ASC_NODE = 25.8091
ARG_OF_PERICENTER = 349.8698
MEAN_ANOMALY   = 10.1921

EPHEMERIS_TYPE = 0
CLASSIFICATION_TYPE = U
NORAD_CAT_ID   = 89161
ELEMENT_SET_NO = 999
REV_AT_EPOCH   = 55201
BSTAR          = .32487E-2
MEAN_MOTION_DOT = .159725E-2
MEAN_MOTION_DDOT = 0

CCSDS_OMM_VERS = 2.0
CREATION_DATE  = 
ORIGINATOR     = 

OBJECT_NAME    = UNKNOWN
OBJECT_ID      = 
CENTER_NAME    = EARTH
REF_FRAME      = TEME
TIME_SYSTEM    = UTC
MEAN_ELEMENT_THEORY = SGP/SGP4

EPOCH          = 2025-12-31T20:15:58.404672
MEAN_MOTION    = 14.47028423
ECCENTRICITY   = .0289405
INCLINATION    = 82.0629
RA_OF_ASC_NODE = 204.0111
ARG_OF_PERICENTER = 222.5507
MEAN_ANOMALY   = 135.2939

EPHEMERIS_TYPE = 0
CLASSIFICATION_TYPE = U
NORAD_CAT_ID   = 89172
ELEMENT_SET_NO = 999
REV_AT_EPOCH   = 60465
BSTAR          = .37826E-2
MEAN_MOTION_DOT = .23407E-3
MEAN_MOTION_DDOT = 0

CCSDS_OMM_VERS = 2.0
CREATION_DATE  = 
ORIGINATOR     = 

OBJECT_NAME    = UNKNOWN
OBJECT_ID      = 
CENTER_NAME    = EARTH
REF_FRAME      = TEME
TIME_SYSTEM    = UTC
MEAN_ELEMENT_THEORY = SGP/SGP4

EPOCH          = 2025-12-25T11:31:55.343424
MEAN_MOTION    = 13.73728383
ECCENTRICITY   = .0033648
INCLINATION    = 82.9213
RA_OF_ASC_NODE = 259.6730
ARG_OF_PERICENTER = 106.2454
MEAN_ANOMALY   = 254.2407

EPHEMERIS_TYPE = 0
CLASSIFICATION_TYPE = U
NORAD_CAT_ID   = 89177
ELEMENT_SET_NO = 999
REV_AT_EPOCH   = 6457
BSTAR          = .91583E-4
MEAN_MOTION_DOT = .101E-5
MEAN_MOTION_DDOT = 0

CCSDS_OMM_VERS = 2.0
CREATION_DATE  = 
ORIGINATOR     = 

OBJECT_NAME    = UNKNOWN
OBJECT_ID      = 
CENTER_NAME    = EARTH
REF_FRAME      = TEME
TIME_SYSTEM    = UTC
MEAN_ELEMENT_THEORY = SGP/SGP4

EPOCH          = 2026-01-04T05:04:00.037056
MEAN_MOTION    = 13.81608959
ECCENTRICITY   = .0131009
INCLINATION    = 99.2197
RA_OF_ASC_NODE = 279.7758
ARG_OF_PERICENTER = 96.5682
MEAN_ANOMALY   = 265.0404

EPHEMERIS_TYPE = 0
CLASSIFICATION_TYPE = U
NORAD_CAT_ID   = 89183
ELEMENT_SET_NO = 999
REV_AT_EPOCH   = 61007
BSTAR          = .70102E-3
MEAN_MOTION_DOT = .756E-5
MEAN_MOTION_DDOT = 0

CCSDS_OMM_VERS = 2.0
CREATION_DATE  = 
ORIGINATOR     = 

OBJECT_NAME    = UNKNOWN
OBJECT_ID      = 
CENTER_NAME    = EARTH
REF_FRAME      = TEME
TIME_SYSTEM    = UTC
MEAN_ELEMENT_THEORY = SGP/SGP4

EPOCH          = 2026-01-04T10:36:03.121056
MEAN_MOTION    = 14.82389827
ECCENTRICITY   = .0012396
INCLINATION    = 98.3867
RA_OF_ASC_NODE = 235.2343
ARG_OF_PERICENTER = 50.7898
MEAN_ANOMALY   = 309.4413

EPHEMERIS_TYPE = 0
CLASSIFICATION_TYPE = U
NORAD_CAT_ID   = 89184
ELEMENT_SET_NO = 999
REV_AT_EPOCH   = 49553
BSTAR          = .3777E-2
MEAN_MOTION_DOT = .30354E-3
MEAN_MOTION_DDOT = 0

CCSDS_OMM_VERS = 2.0
CREATION_DATE  = 
ORIGINATOR     = 

OBJECT_NAME    = UNKNOWN
OBJECT_ID      = 
CENTER_NAME    = EARTH
REF_FRAME      = TEME
TIME_SYSTEM    = UTC
MEAN_ELEMENT_THEORY = SGP/SGP4

EPOCH          = 2026-01-01T11:22:23.344320
MEAN_MOTION    = 13.91612079
ECCENTRICITY   = .0228525
INCLINATION    = 98.7785
RA_OF_ASC_NODE = 238.5807
ARG_OF_PERICENTER = 72.3536
MEAN_ANOMALY   = 290.2437

EPHEMERIS_TYPE = 0
CLASSIFICATION_TYPE = U
NORAD_CAT_ID   = 89213
ELEMENT_SET_NO = 999
REV_AT_EPOCH   = 45541
BSTAR          = .51759E-3
MEAN_MOTION_DOT = .773E-5
MEAN_MOTION_DDOT = 0

CCSDS_OMM_VERS = 2.0
CREATION_DATE  = 
ORIGINATOR     = 

OBJECT_NAME    = UNKNOWN
OBJECT_ID      = 
CENTER_NAME    = EARTH
REF_FRAME      = TEME
TIME_SYSTEM    = UTC
MEAN_ELEMENT_THEORY = SGP/SGP4

EPOCH          = 2026-01-04T07:13:21.001728
MEAN_MOTION    = 9.25269680
ECCENTRICITY   = .283058
INCLINATION    = 62.4793
RA_OF_ASC_NODE = 333.9325
ARG_OF_PERICENTER = 102.7707
MEAN_ANOMALY   = 290.0670

EPHEMERIS_TYPE = 0
CLASSIFICATION_TYPE = U
NORAD_CAT_ID   = 89251
ELEMENT_SET_NO = 999
REV_AT_EPOCH   = 37527
BSTAR          = .54711E-2
MEAN_MOTION_DOT = .9317E-4
MEAN_MOTION_DDOT = 0

CCSDS_OMM_VERS = 2.0
CREATION_DATE  = 
ORIGINATOR     = 

OBJECT_NAME    = UNKNOWN
OBJECT_ID      = 
CENTER_NAME    = EARTH
REF_FRAME      = TEME
TIME_SYSTEM    = UTC
MEAN_ELEMENT_THEORY = SGP/SGP4

EPOCH          = 2025-12-27T17:32:18.070080
MEAN_MOTION    = 14.43144445
ECCENTRICITY   = .0014011
INCLINATION    = 98.1546
RA_OF_ASC_NODE = 355.5013
ARG_OF_PERICENTER = 111.3049
MEAN_ANOMALY   = 248.9639

EPHEMERIS_TYPE = 0
CLASSIFICATION_TYPE = U
NORAD_CAT_ID   = 89261
ELEMENT_SET_NO = 999
REV_AT_EPOCH   = 53597
BSTAR          = .3375E-3
MEAN_MOTION_DOT = .1094E-4
MEAN_MOTION_DDOT = 0

CCSDS_OMM_VERS = 2.0
CREATION_DATE  = 
ORIGINATOR     = 

OBJECT_NAME    = UNKNOWN
OBJECT_ID      = 
CENTER_NAME    = EARTH
REF_FRAME      = TEME
TIME_SYSTEM    = UTC
MEAN_ELEMENT_THEORY = SGP/SGP4

EPOCH          = 2026-01-03T12:52:48.834912
MEAN_MOTION    = 9.04716607
ECCENTRICITY   = .2859576
INCLINATION    = 84.2990
RA_OF_ASC_NODE = 98.1983
ARG_OF_PERICENTER = 317.4305
MEAN_ANOMALY   = 44.4643

EPHEMERIS_TYPE = 0
CLASSIFICATION_TYPE = U
NORAD_CAT_ID   = 89304
ELEMENT_SET_NO = 999
REV_AT_EPOCH   = 44037
BSTAR          = .54501E-1
MEAN_MOTION_DOT = .50097E-3
MEAN_MOTION_DDOT = 0

CCSDS_OMM_VERS = 2.0
CREATION_DATE  = 
ORIGINATOR     = 

OBJECT_NAME    = UNKNOWN
OBJECT_ID      = 
CENTER_NAME    = EARTH
REF_FRAME      = TEME
TIME_SYSTEM    = UTC
MEAN_ELEMENT_THEORY = SGP/SGP4

EPOCH          = 2026-01-01T23:39:08.880480
MEAN_MOTION    = 12.96252082
ECCENTRICITY   = .0029053
INCLINATION    = 90.2436
RA_OF_ASC_NODE = 7.8000
ARG_OF_PERICENTER = 211.2449
MEAN_ANOMALY   = 148.6945

EPHEMERIS_TYPE = 0
CLASSIFICATION_TYPE = U
NORAD_CAT_ID   = 89349
ELEMENT_SET_NO = 999
REV_AT_EPOCH   = 48137
BSTAR          = .14448E-2
MEAN_MOTION_DOT = .42E-5
MEAN_MOTION_DDOT = 0

CCSDS_OMM_VERS = 2.0
CREATION_DATE  = 
ORIGINATOR     = 

OBJECT_NAME    = UNKNOWN
OBJECT_ID      = 
CENTER_NAME    = EARTH
REF_FRAME      = TEME
TIME_SYSTEM    = UTC
MEAN_ELEMENT_THEORY = SGP/SGP4

EPOCH          = 2026-01-02T20:32:40.692192
MEAN_MOTION    = 13.62911881
ECCENTRICITY   = .0040013
INCLINATION    = 100.4805
RA_OF_ASC_NODE = 24.6942
ARG_OF_PERICENTER = 76.9322
MEAN_ANOMALY   = 283.6279

EPHEMERIS_TYPE = 0
CLASSIFICATION_TYPE = U
NORAD_CAT_ID   = 89379
ELEMENT_SET_NO = 999
REV_AT_EPOCH   = 58365
BSTAR          = .76744E-2
MEAN_MOTION_DOT = .5989E-4
MEAN_MOTION_DDOT = 0

CCSDS_OMM_VERS = 2.0
CREATION_DATE  = 
ORIGINATOR     = 

OBJECT_NAME    = UNKNOWN
OBJECT_ID      = 
CENTER_NAME    = EARTH
REF_FRAME      = TEME
TIME_SYSTEM    = UTC
MEAN_ELEMENT_THEORY = SGP/SGP4

EPOCH          = 2026-01-04T09:30:24.242688
MEAN_MOTION    = 12.01508109
ECCENTRICITY   = .0223068
INCLINATION    = 102.3758
RA_OF_ASC_NODE = 336.3779
ARG_OF_PERICENTER = 86.2631
MEAN_ANOMALY   = 66.0299

EPHEMERIS_TYPE = 0
CLASSIFICATION_TYPE = U
NORAD_CAT_ID   = 89395
ELEMENT_SET_NO = 999
REV_AT_EPOCH   = 52746
BSTAR          = -.96102E-3
MEAN_MOTION_DOT = -.126E-5
MEAN_MOTION_DDOT = 0

CCSDS_OMM_VERS = 2.0
CREATION_DATE  = 
ORIGINATOR     = 

OBJECT_NAME    = UNKNOWN
OBJECT_ID      = 
CENTER_NAME    = EARTH
REF_FRAME      = TEME
TIME_SYSTEM    = UTC
MEAN_ELEMENT_THEORY = SGP/SGP4

EPOCH          = 2025-12-21T00:45:33.791904
MEAN_MOTION    = 12.98758977
ECCENTRICITY   = .0028786
INCLINATION    = 90.2448
RA_OF_ASC_NODE = 5.9911
ARG_OF_PERICENTER = 194.5966
MEAN_ANOMALY   = 192.0628

EPHEMERIS_TYPE = 0
CLASSIFICATION_TYPE = U
NORAD_CAT_ID   = 89403
ELEMENT_SET_NO = 999
REV_AT_EPOCH   = 47890
BSTAR          = .33642E-2
MEAN_MOTION_DOT = .1003E-4
MEAN_MOTION_DDOT = 0

CCSDS_OMM_VERS = 2.0
CREATION_DATE  = 
ORIGINATOR     = 

OBJECT_NAME    = UNKNOWN
OBJECT_ID      = 
CENTER_NAME    = EARTH
REF_FRAME      = TEME
TIME_SYSTEM    = UTC
MEAN_ELEMENT_THEORY = SGP/SGP4

EPOCH          = 2026-01-03T10:06:33.687072
MEAN_MOTION    = 9.16084304
ECCENTRICITY   = .28585
INCLINATION    = 84.0019
RA_OF_ASC_NODE = 148.4784
ARG_OF_PERICENTER = 357.9728
MEAN_ANOMALY   = 1.1358

EPHEMERIS_TYPE = 0
CLASSIFICATION_TYPE = U
NORAD_CAT_ID   = 89484
ELEMENT_SET_NO = 999
REV_AT_EPOCH   = 35742
BSTAR          = .43568E-1
MEAN_MOTION_DOT = .62807E-3
MEAN_MOTION_DDOT = 0

CCSDS_OMM_VERS = 2.0
CREATION_DATE  = 
ORIGINATOR     = 

OBJECT_NAME    = UNKNOWN
OBJECT_ID      = 
CENTER_NAME    = EARTH
REF_FRAME      = TEME
TIME_SYSTEM    = UTC
MEAN_ELEMENT_THEORY = SGP/SGP4

EPOCH          = 2026-01-02T10:09:03.968640
MEAN_MOTION    = 14.16386298
ECCENTRICITY   = .0079842
INCLINATION    = 99.0243
RA_OF_ASC_NODE = 76.5713
ARG_OF_PERICENTER = 341.1524
MEAN_ANOMALY   = 18.6698

EPHEMERIS_TYPE = 0
CLASSIFICATION_TYPE = U
NORAD_CAT_ID   = 89493
ELEMENT_SET_NO = 999
REV_AT_EPOCH   = 46687
BSTAR          = .23588E-2
MEAN_MOTION_DOT = .479E-4
MEAN_MOTION_DDOT = 0

